{"type": "FeatureCollection", "features": [ {"type": "Feature", "properties": {"norad_id": 30411, "name": "FENGYUN 1C DEB", "group": "fengyun-1c-debris", "lat": -25.71611326320078, "lon": 77.85802576021165, "alt_km": 907.0274388369871, "timestamp": "2025-12-17T15:50:10.055856+00:00", "meta": {"OBJECT_NAME": "FENGYUN 1C DEB", "OBJECT_ID": "1999-025AEA", "EPOCH": "2025-12-16T16:41:49.423488", "MEAN_MOTION": 14.07668761, "ECCENTRICITY": 0.01230126, "INCLINATION": 98.5806, "RA_OF_ASC_NODE": 261.1118, "ARG_OF_PERICENTER": 95.5053, "MEAN_ANOMALY": 266.0162, "EPHEMERIS_TYPE": 0, "CLASSIFICATION_TYPE": "U", "NORAD_CAT_ID": 30411, "ELEMENT_SET_NO": 999, "REV_AT_EPOCH": 96039, "BSTAR": 0.0014720884, "MEAN_MOTION_DOT": 2.626e-05, "MEAN_MOTION_DDOT": 0}, "tle": {"line1": "1 30411U 99025AEA 25350.69571092  .00002626  00000+0  14721-2 0  9990", "line2": "2 30411  98.5806 261.1118 0123012  95.5053 266.0162 14.07668761960399"}}, "geometry": {"type": "Point", "coordinates": [77.85802576021165, -25.71611326320078]}}, {"type": "Feature", "properties": {"norad_id": 30413, "name": "FENGYUN 1C DEB", "group": "fengyun-1c-debris", "lat": -38.38662373163275, "lon": -123.79107186268585, "alt_km": 803.8191974629981, "timestamp": "2025-12-17T15:50:10.055867+00:00", "meta": {"OBJECT_NAME": "FENGYUN 1C DEB", "OBJECT_ID": "1999-025AEC", "EPOCH": "2025-12-16T15:08:45.700800", "MEAN_MOTION": 14.32578299, "ECCENTRICITY": 0.00448974, "INCLINATION": 102.063, "RA_OF_ASC_NODE": 225.0291, "ARG_OF_PERICENTER": 206.399, "MEAN_ANOMALY": 210.8978, "EPHEMERIS_TYPE": 0, "CLASSIFICATION_TYPE": "U", "NORAD_CAT_ID": 30413, "ELEMENT_SET_NO": 999, "REV_AT_EPOCH": 97195, "BSTAR": 0.0015728443, "MEAN_MOTION_DOT": 4.246e-05, "MEAN_MOTION_DDOT": 0}, "tle": {"line1": "1 30413U 99025AEC 25350.63108450  .00004246  00000+0  15728-2 0  9998", "line2": "2 30413 102.0630 225.0291 0044897 206.3990 210.8978 14.32578299971953"}}, "geometry": {"type": "Point", "coordinates": [-123.79107186268585, -38.38662373163275]}}, {"type": "Feature", "properties": {"norad_id": 30414, "name": "FENGYUN 1C DEB", "group": "fengyun-1c-debris", "lat": 72.35842565523255, "lon": 118.9673778712848, "alt_km": 777.4658366027334, "timestamp": "2025-12-17T15:50:10.055878+00:00", "meta": {"OBJECT_NAME": "FENGYUN 1C DEB", "OBJECT_ID": "1999-025AED", "EPOCH": "2025-12-16T22:44:32.811936", "MEAN_MOTION": 14.34217339, "ECCENTRICITY": 0.00582295, "INCLINATION": 99.0798, "RA_OF_ASC_NODE": 148.4086, "ARG_OF_PERICENTER": 176.6674, "MEAN_ANOMALY": 183.4908, "EPHEMERIS_TYPE": 0, "CLASSIFICATION_TYPE": "U", "NORAD_CAT_ID": 30414, "ELEMENT_SET_NO": 999, "REV_AT_EPOCH": 97147, "BSTAR": 0.0020047348, "MEAN_MOTION_DOT": 5.685e-05, "MEAN_MOTION_DDOT": 0}, "tle": {"line1": "1 30414U 99025AED 25350.94760199  .00005685  00000+0  20047-2 0  9995", "line2": "2 30414  99.0798 148.4086 0058229 176.6674 183.4908 14.34217339971478"}}, "geometry": {"type": "Point", "coordinates": [118.9673778712848, 72.35842565523255]}}, {"type": "Feature", "properties": {"norad_id": 30415, "name": "FENGYUN 1C DEB", "group": "fengyun-1c-debris", "lat": 78.90988571992528, "lon": -8.270339913883772, "alt_km": 1170.7938804297874, "timestamp": "2025-12-17T15:50:10.055889+00:00", "meta": {"OBJECT_NAME": "FENGYUN 1C DEB", "OBJECT_ID": "1999-025AEE", "EPOCH": "2025-12-16T02:43:13.882368", "MEAN_MOTION": 13.68945065, "ECCENTRICITY": 0.02392024, "INCLINATION": 99.6459, "RA_OF_ASC_NODE": 50.3649, "ARG_OF_PERICENTER": 260.6234, "MEAN_ANOMALY": 126.8607, "EPHEMERIS_TYPE": 0, "CLASSIFICATION_TYPE": "U", "NORAD_CAT_ID": 30415, "ELEMENT_SET_NO": 999, "REV_AT_EPOCH": 93924, "BSTAR": 0.0013076446, "MEAN_MOTION_DOT": 1.332e-05, "MEAN_MOTION_DDOT": 0}, "tle": {"line1": "1 30415U 99025AEE 25350.11335512  .00001332  00000+0  13076-2 0  9991", "line2": "2 30415  99.6459  50.3649 0239202 260.6234 126.8607 13.68945065939249"}}, "geometry": {"type": "Point", "coordinates": [-8.270339913883772, 78.90988571992528]}}, {"type": "Feature", "properties": {"norad_id": 30416, "name": "FENGYUN 1C DEB", "group": "fengyun-1c-debris", "lat": 73.69525141355028, "lon": -16.19952860216646, "alt_km": 884.3479996921615, "timestamp": "2025-12-17T15:50:10.055899+00:00", "meta": {"OBJECT_NAME": "FENGYUN 1C DEB", "OBJECT_ID": "1999-025AEF", "EPOCH": "2025-12-17T00:03:46.855296", "MEAN_MOTION": 14.0263629, "ECCENTRICITY": 0.0055656, "INCLINATION": 98.8351, "RA_OF_ASC_NODE": 15.2846, "ARG_OF_PERICENTER": 178.0317, "MEAN_ANOMALY": 182.1078, "EPHEMERIS_TYPE": 0, "CLASSIFICATION_TYPE": "U", "NORAD_CAT_ID": 30416, "ELEMENT_SET_NO": 999, "REV_AT_EPOCH": 96684, "BSTAR": 0.00048498794, "MEAN_MOTION_DOT": 7.16e-06, "MEAN_MOTION_DDOT": 0}, "tle": {"line1": "1 30416U 99025AEF 25351.00262564  .00000716  00000+0  48499-3 0  9990", "line2": "2 30416  98.8351  15.2846 0055656 178.0317 182.1078 14.02636290966843"}}, "geometry": {"type": "Point", "coordinates": [-16.19952860216646, 73.69525141355028]}}, {"type": "Feature", "properties": {"norad_id": 30417, "name": "FENGYUN 1C DEB", "group": "fengyun-1c-debris", "lat": 31.989630830499067, "lon": 166.99793971081155, "alt_km": 806.414268450224, "timestamp": "2025-12-17T15:50:10.055909+00:00", "meta": {"OBJECT_NAME": "FENGYUN 1C DEB", "OBJECT_ID": "1999-025AEG", "EPOCH": "2025-12-17T05:00:53.459712", "MEAN_MOTION": 14.14667783, "ECCENTRICITY": 0.00645632, "INCLINATION": 98.6932, "RA_OF_ASC_NODE": 341.0751, "ARG_OF_PERICENTER": 107.3969, "MEAN_ANOMALY": 264.6258, "EPHEMERIS_TYPE": 0, "CLASSIFICATION_TYPE": "U", "NORAD_CAT_ID": 30417, "ELEMENT_SET_NO": 999, "REV_AT_EPOCH": 97452, "BSTAR": 0.00023477239, "MEAN_MOTION_DOT": 4.18e-06, "MEAN_MOTION_DDOT": 0}, "tle": {"line1": "1 30417U 99025AEG 25351.20895208  .00000418  00000+0  23477-3 0  9998", "line2": "2 30417  98.6932 341.0751 0064563 107.3969 264.6258 14.14667783974521"}}, "geometry": {"type": "Point", "coordinates": [166.99793971081155, 31.989630830499067]}}, {"type": "Feature", "properties": {"norad_id": 30418, "name": "FENGYUN 1C DEB", "group": "fengyun-1c-debris", "lat": 73.76161850744569, "lon": 119.67438622546997, "alt_km": 537.453891043222, "timestamp": "2025-12-17T15:50:10.055920+00:00", "meta": {"OBJECT_NAME": "FENGYUN 1C DEB", "OBJECT_ID": "1999-025AEH", "EPOCH": "2025-12-17T04:57:08.995104", "MEAN_MOTION": 14.84271769, "ECCENTRICITY": 0.01110895, "INCLINATION": 98.84, "RA_OF_ASC_NODE": 151.4713, "ARG_OF_PERICENTER": 101.4471, "MEAN_ANOMALY": 73.713, "EPHEMERIS_TYPE": 0, "CLASSIFICATION_TYPE": "U", "NORAD_CAT_ID": 30418, "ELEMENT_SET_NO": 999, "REV_AT_EPOCH": 658, "BSTAR": 0.00060772833, "MEAN_MOTION_DOT": 5.616e-05, "MEAN_MOTION_DDOT": 0}, "tle": {"line1": "1 30418U 99025AEH 25351.20635411  .00005616  00000+0  60773-3 0  9992", "line2": "2 30418  98.8400 151.4713 0111089 101.4471  73.7130 14.84271769  6586"}}, "geometry": {"type": "Point", "coordinates": [119.67438622546997, 73.76161850744569]}}, {"type": "Feature", "properties": {"norad_id": 30419, "name": "FENGYUN 1C DEB", "group": "fengyun-1c-debris", "lat": 80.74844275107999, "lon": -153.30567467604274, "alt_km": 817.001769694697, "timestamp": "2025-12-17T15:50:10.055930+00:00", "meta": {"OBJECT_NAME": "FENGYUN 1C DEB", "OBJECT_ID": "1999-025AEJ", "EPOCH": "2025-12-16T14:50:14.682336", "MEAN_MOTION": 14.1805223, "ECCENTRICITY": 0.00529877, "INCLINATION": 99.2405, "RA_OF_ASC_NODE": 297.564, "ARG_OF_PERICENTER": 14.2387, "MEAN_ANOMALY": 160.9939, "EPHEMERIS_TYPE": 0, "CLASSIFICATION_TYPE": "U", "NORAD_CAT_ID": 30419, "ELEMENT_SET_NO": 999, "REV_AT_EPOCH": 97403, "BSTAR": 0.00068232082, "MEAN_MOTION_DOT": 1.37e-05, "MEAN_MOTION_DDOT": 0}, "tle": {"line1": "1 30419U 99025AEJ 25350.61822549  .00001370  00000+0  68232-3 0  9998", "line2": "2 30419  99.2405 297.5640 0052987  14.2387 160.9939 14.18052230974033"}}, "geometry": {"type": "Point", "coordinates": [-153.30567467604274, 80.74844275107999]}}, {"type": "Feature", "properties": {"norad_id": 30432, "name": "FENGYUN 1C DEB", "group": "fengyun-1c-debris", "lat": 55.966823211527654, "lon": 84.0077572619197, "alt_km": 805.6719397973184, "timestamp": "2025-12-17T15:50:10.055940+00:00", "meta": {"OBJECT_NAME": "FENGYUN 1C DEB", "OBJECT_ID": "1999-025AET", "EPOCH": "2025-12-17T03:35:56.236416", "MEAN_MOTION": 14.40700333, "ECCENTRICITY": 0.00827188, "INCLINATION": 98.8356, "RA_OF_ASC_NODE": 250.1655, "ARG_OF_PERICENTER": 325.9047, "MEAN_ANOMALY": 33.6843, "EPHEMERIS_TYPE": 0, "CLASSIFICATION_TYPE": "U", "NORAD_CAT_ID": 30432, "ELEMENT_SET_NO": 999, "REV_AT_EPOCH": 98798, "BSTAR": 0.00053651306, "MEAN_MOTION_DOT": 1.735e-05, "MEAN_MOTION_DDOT": 0}, "tle": {"line1": "1 30432U 99025AET 25351.14995644  .00001735  00000+0  53651-3 0  9993", "line2": "2 30432  98.8356 250.1655 0082718 325.9047  33.6843 14.40700333987986"}}, "geometry": {"type": "Point", "coordinates": [84.0077572619197, 55.966823211527654]}}, {"type": "Feature", "properties": {"norad_id": 30434, "name": "FENGYUN 1C DEB", "group": "fengyun-1c-debris", "lat": 70.44955338624652, "lon": -175.1736951845, "alt_km": 949.2506271188413, "timestamp": "2025-12-17T15:50:10.055950+00:00", "meta": {"OBJECT_NAME": "FENGYUN 1C DEB", "OBJECT_ID": "1999-025AEV", "EPOCH": "2025-12-17T05:02:07.520064", "MEAN_MOTION": 13.90655134, "ECCENTRICITY": 0.01208732, "INCLINATION": 98.9993, "RA_OF_ASC_NODE": 337.8867, "ARG_OF_PERICENTER": 218.9726, "MEAN_ANOMALY": 157.9401, "EPHEMERIS_TYPE": 0, "CLASSIFICATION_TYPE": "U", "NORAD_CAT_ID": 30434, "ELEMENT_SET_NO": 999, "REV_AT_EPOCH": 95769, "BSTAR": 0.0002720531, "MEAN_MOTION_DOT": 3.17e-06, "MEAN_MOTION_DDOT": 0}, "tle": {"line1": "1 30434U 99025AEV 25351.20980926  .00000317  00000+0  27205-3 0  9990", "line2": "2 30434  98.9993 337.8867 0120873 218.9726 157.9401 13.90655134957691"}}, "geometry": {"type": "Point", "coordinates": [-175.1736951845, 70.44955338624652]}}]}